NORAD_CAT_ID,OBJECT_NAME,OBJECT_TYPE,EPOCH,MEAN_MOTION,ECCENTRICITY,INCLINATION,RA_OF_ASC_NODE,ARG_OF_PERICENTER,MEAN_ANOMALY,BSTAR,MEAN_MOTION_DOT,MEAN_MOTION_DDOT,TLE_LINE0,TLE_LINE1,TLE_LINE2,SEMIMAJOR_AXIS,PERIOD,APOGEE,PERIGEE,DECAYED
49447.0,STARLINK-3115,PAYLOAD,2024-05-08 23:59:57,15.08846562,0.0001356,53.2166,345.4728,74.7176,285.3966,0.00093059,0.00014556,0.0,0 STARLINK-3115,1 49447U 21104AR  24129.99996880  .00014556  00000-0  93059-3 0  9992,2 49447  53.2166 345.4728 0001356  74.7176 285.3966 15.08846562138740,6917.86,95.437,540.663,538.787,0.0
49447.0,STARLINK-3115,PAYLOAD,2024-05-09 07:56:52,15.08858532,0.0001376,53.2167,343.9867,72.9187,287.1956,0.0010506,0.0001648,0.0,0 STARLINK-3115,1 49447U 21104AR  24130.33116562  .00016480  00000-0  10506-2 0  9996,2 49447  53.2167 343.9867 0001376  72.9187 287.1956 15.08858532137728,6917.824,95.436,540.641,538.737,0.0
49447.0,STARLINK-3115,PAYLOAD,2024-05-09 20:39:57,15.08847156,0.0001503,53.2182,341.6056,110.8444,249.2709,0.00035799,5.415e-05,0.0,0 STARLINK-3115,1 49447U 21104AR  24130.86108628  .00005415  00000-0  35799-3 0  9996,2 49447  53.2182 341.6056 0001503 110.8444 249.2709 15.08847156138872,6917.859,95.437,540.763,538.684,0.0
49447.0,STARLINK-3115,PAYLOAD,2024-05-10 14:09:12,15.08847618,0.0001612,53.219,338.3336,118.2958,241.8197,0.00020009,2.899e-05,0.0,0 STARLINK-3115,1 49447U 21104AR  24131.58972404  .00002899  00000-0  20009-3 0  9998,2 49447  53.2190 338.3336 0001612 118.2958 241.8197 15.08847618137914,6917.857,95.437,540.837,538.607,0.0
49447.0,STARLINK-3115,PAYLOAD,2024-05-10 20:30:44,15.08848995,0.0001099,53.2175,337.1445,80.7635,279.3482,0.00017732,2.536e-05,0.0,0 STARLINK-3115,1 49447U 21104AR  24131.85468386  .00002536  00000-0  17732-3 0  9994,2 49447  53.2175 337.1445 0001099  80.7635 279.3482 15.08848995139025,6917.853,95.437,540.478,538.958,0.0
49447.0,STARLINK-3115,PAYLOAD,2024-05-11 20:21:24,15.08991283,0.00011,53.2174,332.6859,80.6301,279.4816,0.00248,0.00039567,0.0,0 STARLINK-3115,1 49447U 21104AR  24132.84819899  .00039567  00000-0  24800-2 0  9990,2 49447  53.2174 332.6859 0001100  80.6301 279.4816 15.08991283139172,6917.418,95.428,540.044,538.522,0.0
49447.0,STARLINK-3115,PAYLOAD,2024-05-12 05:53:42,15.08926453,0.0001458,53.2176,330.9025,79.1667,280.9489,0.00035288,5.346e-05,0.0,0 STARLINK-3115,1 49447U 21104AR  24133.24562875  .00005346  00000-0  35288-3 0  9995,2 49447  53.2176 330.9025 0001458  79.1667 280.9489 15.08926453139231,6917.616,95.432,540.49,538.473,0.0
49447.0,STARLINK-3115,PAYLOAD,2024-05-12 20:12:10,15.0886198,0.0001357,53.2178,328.227,87.2512,272.8635,-0.002138,-0.00034173,0.0,0 STARLINK-3115,1 49447U 21104AR  24133.84178483 -.00034173  00000-0 -21380-2 0  9998,2 49447  53.2178 328.2270 0001357  87.2512 272.8635 15.08861980139328,6917.813,95.436,540.617,538.739,0.0
49447.0,STARLINK-3115,PAYLOAD,2024-05-12 21:47:33,15.08840326,0.0001643,53.2179,327.9312,102.4739,257.6437,-0.0020979,-0.00033522,0.0,0 STARLINK-3115,1 49447U 21104AR  24133.90802819 -.00033522  00000-0 -20979-2 0  9992,2 49447  53.2179 327.9312 0001643 102.4739 257.6437 15.08840326138265,6917.879,95.438,540.881,538.608,0.0
49447.0,STARLINK-3115,PAYLOAD,2024-05-13 05:44:30,15.08817254,0.0001559,53.2174,326.4425,91.0714,269.0457,-0.0020431,-0.00032637,0.0,0 STARLINK-3115,1 49447U 21104AR  24134.23923841 -.00032637  00000-0 -20431-2 0  9997,2 49447  53.2174 326.4425 0001559  91.0714 269.0457 15.08817254139388,6917.95,95.439,540.893,538.736,0.0
49447.0,STARLINK-3115,PAYLOAD,2024-05-13 21:38:23,15.08802535,0.000147,53.2168,323.4681,96.8122,263.3038,0.00032023,4.807e-05,0.0,0 STARLINK-3115,1 49447U 21104AR  24134.90166320  .00004807  00000-0  32023-3 0  9999,2 49447  53.2168 323.4681 0001470  96.8122 263.3038 15.08802535138411,6917.995,95.44,540.877,538.843,0.0
49447.0,STARLINK-3115,PAYLOAD,2024-05-13 23:13:46,15.08804576,0.0001451,53.2167,323.1705,96.5564,263.5593,0.00049678,7.62e-05,0.0,0 STARLINK-3115,1 49447U 21104AR  24134.96790500  .00007620  00000-0  49678-3 0  9998,2 49447  53.2167 323.1705 0001451  96.5564 263.5593 15.08804576139494,6917.989,95.44,540.857,538.85,0.0
49447.0,STARLINK-3115,PAYLOAD,2024-05-14 05:35:19,15.08820608,0.000159,53.2169,321.982,98.1921,261.9251,0.00072251,0.00011223,0.0,0 STARLINK-3115,1 49447U 21104AR  24135.23286770  .00011223  00000-0  72251-3 0  9995,2 49447  53.2169 321.9820 0001590  98.1921 261.9251 15.08820608139531,6917.94,95.439,540.905,538.705,0.0
49447.0,STARLINK-3115,PAYLOAD,2024-05-15 05:26:09,15.08823497,0.0003067,53.2162,317.5208,80.3857,279.7481,0.00082042,0.00012788,0.0,0 STARLINK-3115,1 49447U 21104AR  24136.22649322  .00012788  00000-0  82042-3 0  9997,2 49447  53.2162 317.5208 0003067  80.3857 279.7481 15.08823497139684,6917.931,95.439,541.918,537.674,0.0
49447.0,STARLINK-3115,PAYLOAD,2024-05-15 11:47:41,15.08838308,0.0003172,53.2065,316.333,78.286,281.8488,0.0011003,0.00017267,0.0,0 STARLINK-3115,1 49447U 21104AR  24136.49145441  .00017267  00000-0  11003-2 0  9994,2 49447  53.2065 316.3330 0003172  78.2860 281.8488 15.08838308138650,6917.886,95.438,541.945,537.556,0.0
49447.0,STARLINK-3115,PAYLOAD,2024-05-15 21:20:01,15.08811082,0.0001709,53.2159,314.548,77.1031,283.0151,0.0010899,0.00017087,0.0,0 STARLINK-3115,1 49447U 21104AR  24136.88890398  .00017087  00000-0  10899-2 0  9997,2 49447  53.2159 314.5480 0001709  77.1031 283.0151 15.08811082139788,6917.969,95.439,541.016,538.652,0.0
49447.0,STARLINK-3115,PAYLOAD,2024-05-16 11:38:30,15.08830929,0.0003501,53.2094,311.87,90.5258,269.6135,0.001348,0.00021227,0.0,0 STARLINK-3115,1 49447U 21104AR  24137.48507625  .00021227  00000-0  13480-2 0  9992,2 49447  53.2094 311.8700 0003501  90.5258 269.6135 15.08830929138808,6917.908,95.438,542.195,537.351,0.0
49447.0,STARLINK-3115,PAYLOAD,2024-05-16 21:10:49,15.0881897,0.0001393,53.2127,310.0852,96.434,263.681,0.00066112,0.00010243,0.0,0 STARLINK-3115,1 49447U 21104AR  24137.88252105  .00010243  00000-0  66112-3 0  9993,2 49447  53.2127 310.0852 0001393  96.4340 263.6810 15.08818970139939,6917.945,95.439,540.773,538.846,0.0
49447.0,STARLINK-3115,PAYLOAD,2024-05-17 11:29:19,15.08836407,0.0003968,53.2122,307.4082,94.559,265.5856,0.0016905,0.00026719,0.0,0 STARLINK-3115,1 49447U 21104AR  24138.47869603  .00026719  00000-0  16905-2 0  9995,2 49447  53.2122 307.4082 0003968  94.5590 265.5856 15.08836407138952,6917.891,95.438,542.501,537.011,0.0
49447.0,STARLINK-3115,PAYLOAD,2024-05-17 21:01:38,15.08812003,0.0001576,53.2159,305.6272,88.0974,272.0199,0.0016885,0.00026666,0.0,0 STARLINK-3115,1 49447U 21104AR  24138.87614445  .00026666  00000-0  16885-2 0  9999,2 49447  53.2159 305.6272 0001576  88.0974 272.0199 15.08812003140086,6917.966,95.439,540.921,538.741,0.0
49447.0,STARLINK-3115,PAYLOAD,2024-05-18 11:20:06,15.08864747,0.0001451,53.2159,302.9506,87.7571,272.3587,0.002349,0.0003732,0.0,0 STARLINK-3115,1 49447U 21104AR  24139.47230256  .00037320  00000-0  23490-2 0  9999,2 49447  53.2159 302.9506 0001451  87.7571 272.3587 15.08864747140173,6917.805,95.436,540.674,538.666,0.0
49447.0,STARLINK-3115,PAYLOAD,2024-05-18 14:30:53,15.08869922,0.0001433,53.216,302.3557,87.3109,272.8047,0.0020452,0.00032438,0.0,0 STARLINK-3115,1 49447U 21104AR  24139.60478036  .00032438  00000-0  20452-2 0  9994,2 49447  53.2160 302.3557 0001433  87.3109 272.8047 15.08869922139127,6917.789,95.436,540.645,538.663,0.0
49447.0,STARLINK-3115,PAYLOAD,2024-05-18 20:52:24,15.08889995,0.0001316,53.2168,301.166,86.6168,273.4975,0.002102,0.0003337,0.0,0 STARLINK-3115,1 49447U 21104AR  24139.86973250  .00033370  00000-0  21020-2 0  9998,2 49447  53.2168 301.1660 0001316  86.6168 273.4975 15.08889995139167,6917.728,95.434,540.503,538.682,0.0
49447.0,STARLINK-3115,PAYLOAD,2024-05-19 14:21:38,15.08887793,9.9e-05,53.2168,297.8955,68.4088,291.701,0.0014797,0.00023371,0.0,0 STARLINK-3115,1 49447U 21104AR  24140.59835793  .00023371  00000-0  14797-2 0  9992,2 49447  53.2168 297.8955 0000990  68.4088 291.7010 15.08887793139270,6917.734,95.435,540.284,538.914,0.0
49447.0,STARLINK-3115,PAYLOAD,2024-05-19 17:32:24,15.08845301,0.0001666,53.2171,297.3011,100.8882,259.2298,-0.00033225,-5.573e-05,0.0,0 STARLINK-3115,1 49447U 21104AR  24140.73083542 -.00005573  00000-0 -33225-3 0  9999,2 49447  53.2171 297.3011 0001666 100.8882 259.2298 15.08845301140364,6917.864,95.437,540.882,538.577,0.0
49447.0,STARLINK-3115,PAYLOAD,2024-05-20 11:01:40,15.08819923,0.0001749,53.2163,294.0293,102.1097,258.0091,0.0013708,0.00021584,0.0,0 STARLINK-3115,1 49447U 21104AR  24141.45949233  .00021584  00000-0  13708-2 0  9998,2 49447  53.2163 294.0293 0001749 102.1097 258.0091 15.08819923140477,6917.942,95.439,541.017,538.597,0.0
49447.0,STARLINK-3115,PAYLOAD,2024-05-20 15:47:49,15.08822601,0.0001135,53.2154,293.1356,85.7294,274.3828,0.00032789,4.932e-05,0.0,0 STARLINK-3115,1 49447U 21104AR  24141.65821425  .00004932  00000-0  32789-3 0  9991,2 49447  53.2154 293.1356 0001135  85.7294 274.3828 15.08822601140501,6917.934,95.439,540.584,539.013,0.0
49447.0,STARLINK-3115,PAYLOAD,2024-05-21 14:03:14,15.08828586,0.0001237,53.2163,288.9732,87.0115,273.1018,0.00047822,7.329e-05,0.0,0 STARLINK-3115,1 49447U 21104AR  24142.58558592  .00007329  00000-0  47822-3 0  9993,2 49447  53.2163 288.9732 0001237  87.0115 273.1018 15.08828586139572,6917.915,95.438,540.636,538.925,0.0
49447.0,STARLINK-3115,PAYLOAD,2024-05-21 17:14:00,15.088342,0.0001249,53.2168,288.3787,86.1755,273.938,0.00057787,8.919e-05,0.0,0 STARLINK-3115,1 49447U 21104AR  24142.71806577  .00008919  00000-0  57787-3 0  9994,2 49447  53.2168 288.3787 0001249  86.1755 273.9380 15.08834200140666,6917.898,95.438,540.627,538.899,0.0
49447.0,STARLINK-3115,PAYLOAD,2024-05-23 13:44:47,15.08867578,0.0001313,53.2169,280.0612,76.6273,283.4865,0.00058252,9.002e-05,0.0,0 STARLINK-3115,1 49447U 21104AR  24144.57277270  .00009002  00000-0  58252-3 0  9994,2 49447  53.2169 280.0612 0001313  76.6273 283.4865 15.08867578139873,6917.796,95.436,540.569,538.753,0.0
